1 19508U 88086A   21044.46562288  .00000062  00000-0  00000-0 0  9993
2 19508  15.0769   8.8975 0007614 336.0985  22.0979  0.99221352117902
1 19511U 65027AU  21045.20814323  .00000339  00000-0  11499-2 0  9993
2 19511  90.2932 312.7485 0032208 143.1528  10.1330 12.96858972549208
1 19512U 73086HF  21044.90002266 -.00000038  00000-0  59848-4 0  9998
2 19512 102.2406  20.2916 0029646  33.6491 352.1045 12.35084118476806
1 19515U 88074D   21044.83954425  .00000152  00000-0  22200-3 0  9996
2 19515  89.9350 353.8097 0093522 346.0765  66.4361 13.49159485594906
1 19516U 88074E   21044.89384063  .00000104  00000-0  14812-3 0  9995
2 19516  89.9929  21.3495 0086510 315.4702 105.1455 13.49485450595560
1 19531U 88089A   21044.96631710 -.00000029  00000-0  59483-5 0  9992
2 19531  98.4061  56.6567 0011855 142.7559 217.4440 14.15267804671720
1 19535U 88085F   21044.86671773  .00000121  00000-0  27267-3 0  9999
2 19535  65.2225 289.8952 5560437 118.9022 307.4904  4.50818405510696
1 19537U 88085G   21045.00899214 -.00000060  00000-0  57543-4 0  9994
2 19537  64.7827 335.7027 5730431 170.2714 209.1926  4.35599201509701
1 19548U 88091B   21044.73196778 -.00000306  00000-0  00000-0 0  9992
2 19548  14.0401 355.3181 0039408 323.8625  39.5050  1.00274698105845
1 19549U 88091C   21045.19105822 -.00000095  00000-0  25112-3 0  9993
2 19549  26.3688 113.8147 6886478  76.9071 346.3938  2.76107853301329
1 19550U 88091D   21043.96078830  .00000083  00000-0  00000-0 0  9998
2 19550  14.4448 346.7937 0015281 266.4716 280.1890  1.00481853110511
1 19554U 88092A   21044.64479924  .00000047  00000-0  00000-0 0  9998
2 19554  69.9433 256.1406 4899624 118.1006 295.0013  2.00633386237028
1 19557U 88092D   21044.38578069  .00000111  00000-0  00000-0 0  9994
2 19557  69.3332 191.6434 4876440  92.4749 338.2825  2.04130824241249
1 19559U 88074F   21044.79251219  .00000049  00000-0  60986-4 0  9999
2 19559  89.4184 159.9479 0098168 122.8601  30.9267 13.44817017592190
1 19561U 68097EU  21044.67525023  .00001325  00000-0  14596-3 0  9992
2 19561  62.2549 151.1219 0305717  78.7721 284.7548 14.64409816605122
1 19562U 87020CD  21045.15529142  .00002089  00000-0  34956-2 0  9999
2 19562  74.4097 209.8385 0040622 241.9067 240.9827 13.46304362966784
1 19573U 88093A   21044.70989146  .00000961  00000-0  65469-4 0  9998
2 19573  82.5210 130.4838 0015438  63.1037 297.1766 15.05067511739797
1 19574U 88093B   21044.92279146  .00000080  00000-0  67507-5 0  9993
2 19574  82.5348 334.2459 0022364  29.4041  37.7040 14.83356610726660
1 19576U 65027AV  21044.50866936  .00000186  00000-0  59798-3 0  9998
2 19576  90.2827 324.1880 0028047 339.1738 195.0802 12.99635572545018
1 19577U 88074G   21044.93393091  .00000061  00000-0  88081-4 0  9990
2 19577  90.5192  31.2215 0090876 158.7825 230.3510 13.44456779591556
1 19580U 78100AL  21042.41121738  .00000122  00000-0  56870-3 0  9999
2 19580  82.6503  84.2015 0305272 201.4429 223.3618 12.56066414451538
1 19590U 73086HG  21045.20368383 -.00000055  00000-0 -78875-4 0  9994
2 19590 102.3903  27.5074 0045828 308.7638  63.7209 12.31816891615426
1 19592U 65108AA  21044.24083251 -.00000337  00000-0 -12252-2 0  9991
2 19592  26.9650 356.6898 6733345 223.9630 284.0250  2.81767243290155
1 19593U 65027AW  21045.10536182 -.00000079  00000-0 -30923-3 0  9993
2 19593  90.2859 321.7826 0025740 188.2630 242.1274 12.94254037549846
1 19594U 78026HN  21044.44006744  .00001676  00000-0  82704-3 0  9995
2 19594  98.9111  33.9466 0119547  48.1195 313.0103 14.15132915427753
1 19595U 65108AB  21044.21871423  .00000354  00000-0  41523-3 0  9998
2 19595  26.9849 108.5252 6032388  12.5633 357.5801  3.89279230119960
1 19596U 88095A   21044.24136799  .00000085  00000-0  00000-0 0  9995
2 19596  13.8945 345.0805 0005108  84.0513 179.2875  1.00314982102091
1 19599U 84088H   21044.42114920  .00000182  00000-0  84243-4 0  9991
2 19599  28.7161 125.6275 1923361 343.6323  10.9626 10.93260817 23474
1 19608U 88096A   21044.56960816  .00000102  00000-0  00000-0 0  9990
2 19608  69.1701 199.3809 4906761 103.9022 312.0467  2.00605979236708
1 19611U 88096D   21044.23445823 -.00000291  00000-0  00000-0 0  9994
2 19611  68.4971 126.9405 5498860  78.8719 335.5935  2.04288174240883
1 19621U 88098A   21045.01103806 -.00000048  00000-0  00000+0 0  9995
2 19621  15.2318   5.5823 0003842 185.9138 341.4868  0.99195347114430
1 19622U 88098B   21044.81132165  .00006818  00000-0  94040-3 0  9994
2 19622   3.8953 275.8270 6310285  19.3893 356.6036  3.60470836351778
1 19638U 77065GB  21044.39685017 -.00002108  00000-0 -62978-2 0  9999
2 19638  30.9964 124.5950 0686353 130.1327 314.2754 12.46324691330509
1 19640U 87020CE  21044.92701794  .00000178  00000-0  18859-2 0  9996
2 19640  73.5479 115.5203 0167447 278.1414 257.0416 12.16742595401653
1 19643U 78121C   21044.92317219  .00000146  00000-0  67149-4 0  9999
2 19643  81.2398 293.1928 0065194   2.1605   9.5453 14.15187664667760
1 19646U 78100AM  21044.90096497  .00003015  00000-0  10216-1 0  9997
2 19646  82.1606 269.5180 0081642 122.2140 250.7907 12.97294039161560
1 19649U 88102A   21045.19831775  .00000010  00000-0  29697-4 0  9999
2 19649  71.0015 137.3999 0003061  71.3329 288.8125 14.14729022663800
1 19650U 88102B   21044.83467033  .00000074  00000-0  61743-4 0  9991
2 19650  70.9995  82.3344 0016333 301.8435  58.1097 14.15801905665041
1 19656U 88102C   21044.70130870 -.00000001  00000-0  38987-4 0  9994
2 19656  70.9802  44.1661 0209794  75.8185 286.6122 13.71253546611880
1 19657U 88102D   21044.36271043  .00000009  00000-0  48310-4 0  9993
2 19657  70.9821  32.2888 0210355  40.8774  28.6068 13.71570446612258
1 19658U 88102E   21044.89138941 -.00000029  00000-0  14086-4 0  9997
2 19658  71.0239 330.7557 0200456 270.7557 161.7124 13.74433087615704
1 19659U 88102F   21044.89049431 -.00000028  00000-0  12513-4 0  9995
2 19659  71.0339 254.7769 0188209 165.0403 211.3511 13.76708208618441
1 19664U 65027AX  21044.97229569  .00000643  00000-0  20461-2 0  9994
2 19664  90.2938 311.4827 0030666 335.1322  38.6548 13.02095689802855
1 19667U 70025QC  21044.83228025 -.00000339  00000-0 -98144-3 0  9990
2 19667  99.7321 174.7685 0342801 129.1471  22.3094 12.84203207531483
1 19683U 88108A   21044.94840953 -.00000084  00000-0  00000+0 0  9997
2 19683  15.4836 350.6944 0023300 158.9170  27.3123  0.96651343114726
1 19686U 88108D   21044.84526771 -.00000077  00000-0  00000-0 0  9991
2 19686  13.6262 343.5428 0013585 136.8439 109.6079  1.01512833104659
1 19687U 88109A   21044.89902468  .00000030  00000-0  00000-0 0  9997
2 19687  14.8593 352.2193 0005236 325.8566 219.1893  0.99667976 98738
1 19688U 88109B   21044.67351128 -.00000139  00000-0  00000-0 0  9996
2 19688  13.8289  19.9785 0016547  54.1482 150.7851  0.98338732 96916
1 19689U 88109C   21044.88315686 -.00000103  00000-0 -69614-4 0  9991
2 19689   7.2119 308.3969 7183321 294.9033   9.1608  2.28912904233355
1 19710U 88111A   21044.92297178 -.00000322  00000-0  00000+0 0  9990
2 19710  14.9930   1.1053 0006437  74.8392 141.2083  1.00217792111303
1 19749U 89001A   21043.26018045 -.00000006  00000-0  00000-0 0  9991
2 19749  64.2012 139.3114 0003858 229.1391 165.9722  2.13103599249729
1 19750U 89001B   21043.27740894 -.00000005  00000-0  00000-0 0  9997
2 19750  64.2203 139.6107 0014797 214.0775 129.3561  2.13101992249709
1 19751U 89001C   21044.63265091  .00000005  00000-0  00000-0 0  9999
2 19751  64.2122 139.1900 0023066 211.5674 260.9521  2.13156302249810
1 19753U 89001E   21043.38460128 -.00000004  00000-0  00000-0 0  9990
2 19753  64.2122 139.2079 0025114 210.4148 261.7511  2.13159928250109
1 19754U 89001F   21043.52271674 -.00000003  00000-0  00000-0 0  9992
2 19754  64.2120 138.0348 0013963 235.2351 123.3116  2.13421186250061
1 19755U 89001G   21045.07955372 -.00000002  00000-0  23508-3 0  9999
2 19755  64.8876 333.9898 5707748 168.7423 344.7739  4.25497366498150
1 19765U 89004A   21044.89710549  .00000054  00000-0  00000-0 0  9992
2 19765  14.3864 347.8424 0020883 108.6515  69.8087  0.99063545116260
1 19769U 89005A   21044.90658776 -.00000005  00000-0  73815-5 0  9998
2 19769  74.0453 220.2659 0022557 189.5324 170.5403 14.34878925677186
1 19770U 89005B   21045.08004853  .00000021  00000-0  15363-4 0  9991
2 19770  74.0445 103.3033 0005683 223.0699 151.8152 14.38863101678982
1 19772U 89006A   21044.09722534 -.00000158  00000-0  00000-0 0  9997
2 19772  15.0428   9.2866 0023700  58.4700 118.2260  0.99106286105293
1 19773U 89006B   21044.38739079 -.00000154  00000-0  35469-3 0  9998
2 19773   8.2565  92.6348 7169226  70.9399 349.6620  2.28354879266021
1 19776U 89004F   21044.47191845 -.00000045  00000-0  00000-0 0  9991
2 19776  14.8501 348.9501 0026062  75.4699 135.5554  0.97992103 99283
1 19777U 88095F   21044.44351468 -.00000144  00000-0  00000-0 0  9997
2 19777  14.8392 348.1095 0009897 212.9687  51.7471  0.97939108103193
1 19785U 89009A   21044.81622976  .00000017  00000-0  31404-4 0  9992
2 19785  82.6237 153.1061 0013988  70.9421  46.7044 12.64284033477049
1 19786U 89009B   21044.87324854  .00000004  00000-0 -37098-4 0  9995
2 19786  82.6247 184.8840 0003328 202.3597 313.1286 12.62159518474424
1 19787U 89009C   21044.85863199  .00000012  00000-0  68040-5 0  9994
2 19787  82.6166 165.4718 0007470 148.6157 329.5940 12.62863172475371
1 19788U 89009D   21044.81425012  .00000020  00000-0  51077-4 0  9999
2 19788  82.6226 160.7972 0010819  97.5527  58.9167 12.63632662476298
1 19789U 89009E   21044.71655132  .00000008  00000-0 -15811-4 0  9990
2 19789  82.6127 135.8495 0016777  46.2089 314.0388 12.64867927477551
1 19790U 89009F   21044.76220097  .00000028  00000-0  94834-4 0  9998
2 19790  82.6195 131.7652 0019235 355.3574 123.8384 12.65680667478630
1 19791U 89009G   21045.06276869  .00000016  00000-0  36620-4 0  9997
2 19791  82.6103 273.0781 0034564 341.4907 188.1608 12.54862065466330
1 19799U 89011D   21044.99397999 -.00000968  00000-0  00000+0 0  9992
2 19799  67.3777  52.8523 6562873  73.1365 345.6154  2.04176258201782
